ORBCOMM FM103           
1 40091U 14040F   24227.58803072  .00003089  00000+0  71901-3 0  9993
2 40091  47.0059  24.5252 0002391 293.2176  66.8457 14.56887498519377
ORBCOMM FM114           
1 41179U 15081A   24227.54920450  .00003180  00000+0  73849-3 0  9998
2 41179  47.0023 293.9253 0001994 338.3815  21.6986 14.56921837459733
ORBCOMM FM119           
1 41180U 15081B   24227.45567191  .00003188  00000+0  74110-3 0  9999
2 41180  46.9980 203.5901 0000732  44.9208 315.1736 14.56861857460974
ORBCOMM FM105           
1 41181U 15081C   24227.55393282  .00001690  00000+0  52956-3 0  9999
2 41181  46.9996 178.8745 0001868   1.8598 358.2289 14.44541209456404
ORBCOMM FM110           
1 41182U 15081D   24227.45782243  .00004142  00000+0  94926-3 0  9996
2 41182  47.0013 293.7553 0002388 227.3033 132.7652 14.56984439459599
ORBCOMM FM118           
1 41183U 15081E   24227.57272705  .00002988  00000+0  69546-3 0  9993
2 41183  47.0035 293.5438 0002557 222.5322 137.5365 14.56971263459719
ORBCOMM FM112           
1 41184U 15081F   24227.36406328  .00004045  00000+0  93057-3 0  9991
2 41184  46.9965 203.2212 0001484  22.6548 337.4402 14.56848556460909
ORBCOMM FM113           
1 41185U 15081G   24227.34124593  .00004643  00000+0  10624-2 0  9993
2 41185  46.9981 203.6110 0000936  29.3433 330.7504 14.56857905460881
