<?xml version="1.0" encoding="UTF-8"?>
<ndm xmlns:xsi="http://www.w3.org/2001/XMLSchema-instance" xsi:noNamespaceSchemaLocation="https://sanaregistry.org/r/ndmxml_unqualified/ndmxml-2.0.0-master-2.0.xsd">
<omm id="CCSDS_OMM_VERS" version="2.0">
<header><CREATION_DATE/><ORIGINATOR/></header><body><segment><metadata><OBJECT_NAME>ORBCOMM FM103</OBJECT_NAME><OBJECT_ID>2014-040F</OBJECT_ID><CENTER_NAME>EARTH</CENTER_NAME><REF_FRAME>TEME</REF_FRAME><TIME_SYSTEM>UTC</TIME_SYSTEM><MEAN_ELEMENT_THEORY>SGP4</MEAN_ELEMENT_THEORY></metadata><data><meanElements><EPOCH>2024-08-14T14:06:45.854208</EPOCH><MEAN_MOTION>14.56887498</MEAN_MOTION><ECCENTRICITY>.0002391</ECCENTRICITY><INCLINATION>47.0059</INCLINATION><RA_OF_ASC_NODE>24.5252</RA_OF_ASC_NODE><ARG_OF_PERICENTER>293.2176</ARG_OF_PERICENTER><MEAN_ANOMALY>66.8457</MEAN_ANOMALY></meanElements><tleParameters><EPHEMERIS_TYPE>0</EPHEMERIS_TYPE><CLASSIFICATION_TYPE>U</CLASSIFICATION_TYPE><NORAD_CAT_ID>40091</NORAD_CAT_ID><ELEMENT_SET_NO>999</ELEMENT_SET_NO><REV_AT_EPOCH>51937</REV_AT_EPOCH><BSTAR>.71901E-3</BSTAR><MEAN_MOTION_DOT>.3089E-4</MEAN_MOTION_DOT><MEAN_MOTION_DDOT>0</MEAN_MOTION_DDOT></tleParameters></data></segment></body></omm>
<omm id="CCSDS_OMM_VERS" version="2.0">
<header><CREATION_DATE/><ORIGINATOR/></header><body><segment><metadata><OBJECT_NAME>ORBCOMM FM114</OBJECT_NAME><OBJECT_ID>2015-081A</OBJECT_ID><CENTER_NAME>EARTH</CENTER_NAME><REF_FRAME>TEME</REF_FRAME><TIME_SYSTEM>UTC</TIME_SYSTEM><MEAN_ELEMENT_THEORY>SGP4</MEAN_ELEMENT_THEORY></metadata><data><meanElements><EPOCH>2024-08-14T13:10:51.268800</EPOCH><MEAN_MOTION>14.56921837</MEAN_MOTION><ECCENTRICITY>.0001994</ECCENTRICITY><INCLINATION>47.0023</INCLINATION><RA_OF_ASC_NODE>293.9253</RA_OF_ASC_NODE><ARG_OF_PERICENTER>338.3815</ARG_OF_PERICENTER><MEAN_ANOMALY>21.6986</MEAN_ANOMALY></meanElements><tleParameters><EPHEMERIS_TYPE>0</EPHEMERIS_TYPE><CLASSIFICATION_TYPE>U</CLASSIFICATION_TYPE><NORAD_CAT_ID>41179</NORAD_CAT_ID><ELEMENT_SET_NO>999</ELEMENT_SET_NO><REV_AT_EPOCH>45973</REV_AT_EPOCH><BSTAR>.73849E-3</BSTAR><MEAN_MOTION_DOT>.318E-4</MEAN_MOTION_DOT><MEAN_MOTION_DDOT>0</MEAN_MOTION_DDOT></tleParameters></data></segment></body></omm>
<omm id="CCSDS_OMM_VERS" version="2.0">
<header><CREATION_DATE/><ORIGINATOR/></header><body><segment><metadata><OBJECT_NAME>ORBCOMM FM119</OBJECT_NAME><OBJECT_ID>2015-081B</OBJECT_ID><CENTER_NAME>EARTH</CENTER_NAME><REF_FRAME>TEME</REF_FRAME><TIME_SYSTEM>UTC</TIME_SYSTEM><MEAN_ELEMENT_THEORY>SGP4</MEAN_ELEMENT_THEORY></metadata><data><meanElements><EPOCH>2024-08-14T10:56:10.053024</EPOCH><MEAN_MOTION>14.56861857</MEAN_MOTION><ECCENTRICITY>.0000732</ECCENTRICITY><INCLINATION>46.9980</INCLINATION><RA_OF_ASC_NODE>203.5901</RA_OF_ASC_NODE><ARG_OF_PERICENTER>44.9208</ARG_OF_PERICENTER><MEAN_ANOMALY>315.1736</MEAN_ANOMALY></meanElements><tleParameters><EPHEMERIS_TYPE>0</EPHEMERIS_TYPE><CLASSIFICATION_TYPE>U</CLASSIFICATION_TYPE><NORAD_CAT_ID>41180</NORAD_CAT_ID><ELEMENT_SET_NO>999</ELEMENT_SET_NO><REV_AT_EPOCH>46097</REV_AT_EPOCH><BSTAR>.7411E-3</BSTAR><MEAN_MOTION_DOT>.3188E-4</MEAN_MOTION_DOT><MEAN_MOTION_DDOT>0</MEAN_MOTION_DDOT></tleParameters></data></segment></body></omm>
<omm id="CCSDS_OMM_VERS" version="2.0">
<header><CREATION_DATE/><ORIGINATOR/></header><body><segment><metadata><OBJECT_NAME>ORBCOMM FM105</OBJECT_NAME><OBJECT_ID>2015-081C</OBJECT_ID><CENTER_NAME>EARTH</CENTER_NAME><REF_FRAME>TEME</REF_FRAME><TIME_SYSTEM>UTC</TIME_SYSTEM><MEAN_ELEMENT_THEORY>SGP4</MEAN_ELEMENT_THEORY></metadata><data><meanElements><EPOCH>2024-08-14T13:17:39.795648</EPOCH><MEAN_MOTION>14.44541209</MEAN_MOTION><ECCENTRICITY>.0001868</ECCENTRICITY><INCLINATION>46.9996</INCLINATION><RA_OF_ASC_NODE>178.8745</RA_OF_ASC_NODE><ARG_OF_PERICENTER>1.8598</ARG_OF_PERICENTER><MEAN_ANOMALY>358.2289</MEAN_ANOMALY></meanElements><tleParameters><EPHEMERIS_TYPE>0</EPHEMERIS_TYPE><CLASSIFICATION_TYPE>U</CLASSIFICATION_TYPE><NORAD_CAT_ID>41181</NORAD_CAT_ID><ELEMENT_SET_NO>999</ELEMENT_SET_NO><REV_AT_EPOCH>45640</REV_AT_EPOCH><BSTAR>.52956E-3</BSTAR><MEAN_MOTION_DOT>.169E-4</MEAN_MOTION_DOT><MEAN_MOTION_DDOT>0</MEAN_MOTION_DDOT></tleParameters></data></segment></body></omm>
<omm id="CCSDS_OMM_VERS" version="2.0">
<header><CREATION_DATE/><ORIGINATOR/></header><body><segment><metadata><OBJECT_NAME>ORBCOMM FM110</OBJECT_NAME><OBJECT_ID>2015-081D</OBJECT_ID><CENTER_NAME>EARTH</CENTER_NAME><REF_FRAME>TEME</REF_FRAME><TIME_SYSTEM>UTC</TIME_SYSTEM><MEAN_ELEMENT_THEORY>SGP4</MEAN_ELEMENT_THEORY></metadata><data><meanElements><EPOCH>2024-08-14T10:59:15.857952</EPOCH><MEAN_MOTION>14.56984439</MEAN_MOTION><ECCENTRICITY>.0002388</ECCENTRICITY><INCLINATION>47.0013</INCLINATION><RA_OF_ASC_NODE>293.7553</RA_OF_ASC_NODE><ARG_OF_PERICENTER>227.3033</ARG_OF_PERICENTER><MEAN_ANOMALY>132.7652</MEAN_ANOMALY></meanElements><tleParameters><EPHEMERIS_TYPE>0</EPHEMERIS_TYPE><CLASSIFICATION_TYPE>U</CLASSIFICATION_TYPE><NORAD_CAT_ID>41182</NORAD_CAT_ID><ELEMENT_SET_NO>999</ELEMENT_SET_NO><REV_AT_EPOCH>45959</REV_AT_EPOCH><BSTAR>.94926E-3</BSTAR><MEAN_MOTION_DOT>.4142E-4</MEAN_MOTION_DOT><MEAN_MOTION_DDOT>0</MEAN_MOTION_DDOT></tleParameters></data></segment></body></omm>
<omm id="CCSDS_OMM_VERS" version="2.0">
<header><CREATION_DATE/><ORIGINATOR/></header><body><segment><metadata><OBJECT_NAME>ORBCOMM FM118</OBJECT_NAME><OBJECT_ID>2015-081E</OBJECT_ID><CENTER_NAME>EARTH</CENTER_NAME><REF_FRAME>TEME</REF_FRAME><TIME_SYSTEM>UTC</TIME_SYSTEM><MEAN_ELEMENT_THEORY>SGP4</MEAN_ELEMENT_THEORY></metadata><data><meanElements><EPOCH>2024-08-14T13:44:43.617120</EPOCH><MEAN_MOTION>14.56971263</MEAN_MOTION><ECCENTRICITY>.0002557</ECCENTRICITY><INCLINATION>47.0035</INCLINATION><RA_OF_ASC_NODE>293.5438</RA_OF_ASC_NODE><ARG_OF_PERICENTER>222.5322</ARG_OF_PERICENTER><MEAN_ANOMALY>137.5365</MEAN_ANOMALY></meanElements><tleParameters><EPHEMERIS_TYPE>0</EPHEMERIS_TYPE><CLASSIFICATION_TYPE>U</CLASSIFICATION_TYPE><NORAD_CAT_ID>41183</NORAD_CAT_ID><ELEMENT_SET_NO>999</ELEMENT_SET_NO><REV_AT_EPOCH>45971</REV_AT_EPOCH><BSTAR>.69546E-3</BSTAR><MEAN_MOTION_DOT>.2988E-4</MEAN_MOTION_DOT><MEAN_MOTION_DDOT>0</MEAN_MOTION_DDOT></tleParameters></data></segment></body></omm>
<omm id="CCSDS_OMM_VERS" version="2.0">
<header><CREATION_DATE/><ORIGINATOR/></header><body><segment><metadata><OBJECT_NAME>ORBCOMM FM112</OBJECT_NAME><OBJECT_ID>2015-081F</OBJECT_ID><CENTER_NAME>EARTH</CENTER_NAME><REF_FRAME>TEME</REF_FRAME><TIME_SYSTEM>UTC</TIME_SYSTEM><MEAN_ELEMENT_THEORY>SGP4</MEAN_ELEMENT_THEORY></metadata><data><meanElements><EPOCH>2024-08-14T08:44:15.067392</EPOCH><MEAN_MOTION>14.56848556</MEAN_MOTION><ECCENTRICITY>.0001484</ECCENTRICITY><INCLINATION>46.9965</INCLINATION><RA_OF_ASC_NODE>203.2212</RA_OF_ASC_NODE><ARG_OF_PERICENTER>22.6548</ARG_OF_PERICENTER><MEAN_ANOMALY>337.4402</MEAN_ANOMALY></meanElements><tleParameters><EPHEMERIS_TYPE>0</EPHEMERIS_TYPE><CLASSIFICATION_TYPE>U</CLASSIFICATION_TYPE><NORAD_CAT_ID>41184</NORAD_CAT_ID><ELEMENT_SET_NO>999</ELEMENT_SET_NO><REV_AT_EPOCH>46090</REV_AT_EPOCH><BSTAR>.93057E-3</BSTAR><MEAN_MOTION_DOT>.4045E-4</MEAN_MOTION_DOT><MEAN_MOTION_DDOT>0</MEAN_MOTION_DDOT></tleParameters></data></segment></body></omm>
<omm id="CCSDS_OMM_VERS" version="2.0">
<header><CREATION_DATE/><ORIGINATOR/></header><body><segment><metadata><OBJECT_NAME>ORBCOMM FM113</OBJECT_NAME><OBJECT_ID>2015-081G</OBJECT_ID><CENTER_NAME>EARTH</CENTER_NAME><REF_FRAME>TEME</REF_FRAME><TIME_SYSTEM>UTC</TIME_SYSTEM><MEAN_ELEMENT_THEORY>SGP4</MEAN_ELEMENT_THEORY></metadata><data><meanElements><EPOCH>2024-08-14T08:11:23.648352</EPOCH><MEAN_MOTION>14.56857905</MEAN_MOTION><ECCENTRICITY>.0000936</ECCENTRICITY><INCLINATION>46.9981</INCLINATION><RA_OF_ASC_NODE>203.6110</RA_OF_ASC_NODE><ARG_OF_PERICENTER>29.3433</ARG_OF_PERICENTER><MEAN_ANOMALY>330.7504</MEAN_ANOMALY></meanElements><tleParameters><EPHEMERIS_TYPE>0</EPHEMERIS_TYPE><CLASSIFICATION_TYPE>U</CLASSIFICATION_TYPE><NORAD_CAT_ID>41185</NORAD_CAT_ID><ELEMENT_SET_NO>999</ELEMENT_SET_NO><REV_AT_EPOCH>46088</REV_AT_EPOCH><BSTAR>.10624E-2</BSTAR><MEAN_MOTION_DOT>.4643E-4</MEAN_MOTION_DOT><MEAN_MOTION_DDOT>0</MEAN_MOTION_DDOT></tleParameters></data></segment></body></omm>

</ndm>
